{
  "type": "FeatureCollection",
  "features": [
    {
      "type": "Feature",
      "properties": {
        "name": "Assam",
        "state_code": "AS",
        "region": "NER"
      },
      "geometry": {
        "type": "Polygon",
        "coordinates": [
          [
            [
              89.7,
              26.0
            ],
            [
              89.9,
              26.6
            ],
            [
              91.5,
              26.9
            ],
            [
              93.2,
              26.95
            ],
            [
              95.5,
              27.8
            ],
            [
              96.0,
              27.5
            ],
            [
              95.2,
              26.8
            ],
            [
              93.9,
              25.9
            ],
            [
              93.0,
              24.8
            ],
            [
              92.4,
              24.4
            ],
            [
              91.8,
              25.1
            ],
            [
              90.5,
              25.7
            ],
            [
              89.7,
              26.0
            ]
          ]
        ]
      }
    },
    {
      "type": "Feature",
      "properties": {
        "name": "Arunachal Pradesh",
        "state_code": "AR",
        "region": "NER"
      },
      "geometry": {
        "type": "Polygon",
        "coordinates": [
          [
            [
              91.6,
              26.9
            ],
            [
              91.8,
              27.5
            ],
            [
              92.5,
              28.0
            ],
            [
              94.0,
              29.0
            ],
            [
              96.0,
              29.4
            ],
            [
              97.4,
              28.2
            ],
            [
              96.5,
              27.3
            ],
            [
              95.5,
              27.8
            ],
            [
              93.2,
              26.95
            ],
            [
              91.6,
              26.9
            ]
          ]
        ]
      }
    },
    {
      "type": "Feature",
      "properties": {
        "name": "Meghalaya",
        "state_code": "ML",
        "region": "NER"
      },
      "geometry": {
        "type": "Polygon",
        "coordinates": [
          [
            [
              89.8,
              25.2
            ],
            [
              90.2,
              25.8
            ],
            [
              91.8,
              26.0
            ],
            [
              92.8,
              25.7
            ],
            [
              92.6,
              25.1
            ],
            [
              91.5,
              25.1
            ],
            [
              90.5,
              25.15
            ],
            [
              89.8,
              25.2
            ]
          ]
        ]
      }
    },
    {
      "type": "Feature",
      "properties": {
        "name": "Nagaland",
        "state_code": "NL",
        "region": "NER"
      },
      "geometry": {
        "type": "Polygon",
        "coordinates": [
          [
            [
              93.3,
              25.6
            ],
            [
              93.8,
              26.2
            ],
            [
              94.5,
              26.8
            ],
            [
              95.2,
              27.1
            ],
            [
              95.4,
              26.6
            ],
            [
              94.8,
              25.8
            ],
            [
              93.8,
              25.5
            ],
            [
              93.3,
              25.6
            ]
          ]
        ]
      }
    },
    {
      "type": "Feature",
      "properties": {
        "name": "Manipur",
        "state_code": "MN",
        "region": "NER"
      },
      "geometry": {
        "type": "Polygon",
        "coordinates": [
          [
            [
              93.0,
              24.2
            ],
            [
              93.2,
              25.6
            ],
            [
              94.2,
              25.7
            ],
            [
              94.7,
              25.2
            ],
            [
              94.4,
              24.3
            ],
            [
              93.8,
              23.8
            ],
            [
              93.0,
              24.2
            ]
          ]
        ]
      }
    },
    {
      "type": "Feature",
      "properties": {
        "name": "Mizoram",
        "state_code": "MZ",
        "region": "NER"
      },
      "geometry": {
        "type": "Polygon",
        "coordinates": [
          [
            [
              92.3,
              24.3
            ],
            [
              93.1,
              24.2
            ],
            [
              93.4,
              23.3
            ],
            [
              93.1,
              22.0
            ],
            [
              92.4,
              21.9
            ],
            [
              92.2,
              23.5
            ],
            [
              92.3,
              24.3
            ]
          ]
        ]
      }
    },
    {
      "type": "Feature",
      "properties": {
        "name": "Tripura",
        "state_code": "TR",
        "region": "NER"
      },
      "geometry": {
        "type": "Polygon",
        "coordinates": [
          [
            [
              91.1,
              23.6
            ],
            [
              91.5,
              24.4
            ],
            [
              92.3,
              24.3
            ],
            [
              92.2,
              23.5
            ],
            [
              91.8,
              23.0
            ],
            [
              91.3,
              23.1
            ],
            [
              91.1,
              23.6
            ]
          ]
        ]
      }
    },
    {
      "type": "Feature",
      "properties": {
        "name": "Sikkim",
        "state_code": "SK",
        "region": "NER"
      },
      "geometry": {
        "type": "Polygon",
        "coordinates": [
          [
            [
              88.1,
              27.1
            ],
            [
              88.2,
              27.8
            ],
            [
              88.9,
              28.1
            ],
            [
              88.9,
              27.3
            ],
            [
              88.5,
              27.1
            ],
            [
              88.1,
              27.1
            ]
          ]
        ]
      }
    }
  ]
}